[{"OBJECT_NAME":"KUIPER-00180","OBJECT_ID":"2026-030E","EPOCH":"2026-03-02T22:58:12.273600","MEAN_MOTION":15.3218545,"ECCENTRICITY":0.00158508,"INCLINATION":51.8798,"RA_OF_ASC_NODE":251.9342,"ARG_OF_PERICENTER":48.7894,"MEAN_ANOMALY":311.4454,"EPHEMERIS_TYPE":0,"CLASSIFICATION_TYPE":"U","NORAD_CAT_ID":67768,"ELEMENT_SET_NO":999,"REV_AT_EPOCH":405,"BSTAR":0.00038922601,"MEAN_MOTION_DOT":0.00011964,"MEAN_MOTION_DDOT":0},{"OBJECT_NAME":"KUIPER-00197","OBJECT_ID":"2026-030F","EPOCH":"2026-03-02T22:06:34.278048","MEAN_MOTION":15.36058846,"ECCENTRICITY":0.00010795,"INCLINATION":51.8827,"RA_OF_ASC_NODE":251.709,"ARG_OF_PERICENTER":66.7962,"MEAN_ANOMALY":293.3138,"EPHEMERIS_TYPE":0,"CLASSIFICATION_TYPE":"U","NORAD_CAT_ID":67769,"ELEMENT_SET_NO":999,"REV_AT_EPOCH":405,"BSTAR":0.00078230771,"MEAN_MOTION_DOT":0.00027615,"MEAN_MOTION_DDOT":0},{"OBJECT_NAME":"KUIPER-00198","OBJECT_ID":"2026-030G","EPOCH":"2026-03-02T22:12:44.547840","MEAN_MOTION":15.35700164,"ECCENTRICITY":0.0002786,"INCLINATION":51.8803,"RA_OF_ASC_NODE":251.7329,"ARG_OF_PERICENTER":33.2245,"MEAN_ANOMALY":326.8915,"EPHEMERIS_TYPE":0,"CLASSIFICATION_TYPE":"U","NORAD_CAT_ID":67770,"ELEMENT_SET_NO":999,"REV_AT_EPOCH":405,"BSTAR":0.00076564973,"MEAN_MOTION_DOT":0.00026705,"MEAN_MOTION_DDOT":0},{"OBJECT_NAME":"KUIPER-00199","OBJECT_ID":"2026-030H","EPOCH":"2026-03-02T22:40:12.733248","MEAN_MOTION":15.34042411,"ECCENTRICITY":0.00103103,"INCLINATION":51.8795,"RA_OF_ASC_NODE":251.8547,"ARG_OF_PERICENTER":41.6892,"MEAN_ANOMALY":318.4877,"EPHEMERIS_TYPE":0,"CLASSIFICATION_TYPE":"U","NORAD_CAT_ID":67771,"ELEMENT_SET_NO":999,"REV_AT_EPOCH":405,"BSTAR":0.00088063526,"MEAN_MOTION_DOT":0.00029226,"MEAN_MOTION_DDOT":0},{"OBJECT_NAME":"KUIPER-00200","OBJECT_ID":"2026-030J","EPOCH":"2026-03-02T21:56:05.654976","MEAN_MOTION":15.36704553,"ECCENTRICITY":0.00016903,"INCLINATION":51.881,"RA_OF_ASC_NODE":251.6596,"ARG_OF_PERICENTER":202.791,"MEAN_ANOMALY":157.3002,"EPHEMERIS_TYPE":0,"CLASSIFICATION_TYPE":"U","NORAD_CAT_ID":67772,"ELEMENT_SET_NO":999,"REV_AT_EPOCH":405,"BSTAR":0.0010547031,"MEAN_MOTION_DOT":0.00038208,"MEAN_MOTION_DDOT":0},{"OBJECT_NAME":"KUIPER-00203","OBJECT_ID":"2026-030K","EPOCH":"2026-03-02T22:00:01.999584","MEAN_MOTION":15.27529823,"ECCENTRICITY":0.00120238,"INCLINATION":51.88,"RA_OF_ASC_NODE":252.0914,"ARG_OF_PERICENTER":44.4802,"MEAN_ANOMALY":99.3786,"EPHEMERIS_TYPE":0,"CLASSIFICATION_TYPE":"U","NORAD_CAT_ID":67773,"ELEMENT_SET_NO":999,"REV_AT_EPOCH":261,"BSTAR":-0.052457221,"MEAN_MOTION_DOT":-0.01312845,"MEAN_MOTION_DDOT":0},{"OBJECT_NAME":"KUIPER-00205","OBJECT_ID":"2026-030L","EPOCH":"2026-03-02T22:07:36.720192","MEAN_MOTION":15.360417,"ECCENTRICITY":0.00023276,"INCLINATION":51.8805,"RA_OF_ASC_NODE":251.7099,"ARG_OF_PERICENTER":2.5355,"MEAN_ANOMALY":357.5643,"EPHEMERIS_TYPE":0,"CLASSIFICATION_TYPE":"U","NORAD_CAT_ID":67774,"ELEMENT_SET_NO":999,"REV_AT_EPOCH":405,"BSTAR":0.00078672894,"MEAN_MOTION_DOT":0.00027759,"MEAN_MOTION_DDOT":0},{"OBJECT_NAME":"KUIPER-00208","OBJECT_ID":"2026-030M","EPOCH":"2026-03-02T21:21:30.103200","MEAN_MOTION":15.32829321,"ECCENTRICITY":0.00146231,"INCLINATION":51.8824,"RA_OF_ASC_NODE":252.2423,"ARG_OF_PERICENTER":43.7516,"MEAN_ANOMALY":316.4626,"EPHEMERIS_TYPE":0,"CLASSIFICATION_TYPE":"U","NORAD_CAT_ID":67775,"ELEMENT_SET_NO":999,"REV_AT_EPOCH":404,"BSTAR":-0.00020290498,"MEAN_MOTION_DOT":-6.927e-5,"MEAN_MOTION_DDOT":0},{"OBJECT_NAME":"KUIPER-00209","OBJECT_ID":"2026-030N","EPOCH":"2026-03-02T21:25:31.307808","MEAN_MOTION":15.31436937,"ECCENTRICITY":0.00134672,"INCLINATION":51.8817,"RA_OF_ASC_NODE":252.2586,"ARG_OF_PERICENTER":44.6731,"MEAN_ANOMALY":315.5336,"EPHEMERIS_TYPE":0,"CLASSIFICATION_TYPE":"U","NORAD_CAT_ID":67776,"ELEMENT_SET_NO":999,"REV_AT_EPOCH":404,"BSTAR":-0.00034739041,"MEAN_MOTION_DOT":-0.00011091,"MEAN_MOTION_DDOT":0},{"OBJECT_NAME":"KUIPER-00213","OBJECT_ID":"2026-030P","EPOCH":"2026-03-02T22:56:05.876448","MEAN_MOTION":15.32451082,"ECCENTRICITY":0.00148667,"INCLINATION":51.8796,"RA_OF_ASC_NODE":251.9247,"ARG_OF_PERICENTER":44.6701,"MEAN_ANOMALY":315.5479,"EPHEMERIS_TYPE":0,"CLASSIFICATION_TYPE":"U","NORAD_CAT_ID":67777,"ELEMENT_SET_NO":999,"REV_AT_EPOCH":405,"BSTAR":0.00041822352,"MEAN_MOTION_DOT":0.00012989,"MEAN_MOTION_DDOT":0},{"OBJECT_NAME":"KUIPER-00214","OBJECT_ID":"2026-030Q","EPOCH":"2026-03-02T21:59:20.621760","MEAN_MOTION":15.36469401,"ECCENTRICITY":9.669e-5,"INCLINATION":51.8843,"RA_OF_ASC_NODE":251.6796,"ARG_OF_PERICENTER":191.1042,"MEAN_ANOMALY":168.9923,"EPHEMERIS_TYPE":0,"CLASSIFICATION_TYPE":"U","NORAD_CAT_ID":67778,"ELEMENT_SET_NO":999,"REV_AT_EPOCH":405,"BSTAR":0.0010360132,"MEAN_MOTION_DOT":0.00037234,"MEAN_MOTION_DDOT":0},{"OBJECT_NAME":"KUIPER-00215","OBJECT_ID":"2026-030R","EPOCH":"2026-03-02T22:38:07.081728","MEAN_MOTION":15.34135492,"ECCENTRICITY":0.00099707,"INCLINATION":51.8828,"RA_OF_ASC_NODE":251.8536,"ARG_OF_PERICENTER":40.8683,"MEAN_ANOMALY":319.3048,"EPHEMERIS_TYPE":0,"CLASSIFICATION_TYPE":"U","NORAD_CAT_ID":67779,"ELEMENT_SET_NO":999,"REV_AT_EPOCH":405,"BSTAR":0.00092260006,"MEAN_MOTION_DOT":0.00030732,"MEAN_MOTION_DDOT":0},{"OBJECT_NAME":"KUIPER-00218","OBJECT_ID":"2026-030S","EPOCH":"2026-03-02T22:26:00.158784","MEAN_MOTION":15.34847361,"ECCENTRICITY":0.000628,"INCLINATION":51.8822,"RA_OF_ASC_NODE":251.7969,"ARG_OF_PERICENTER":33.0235,"MEAN_ANOMALY":327.1142,"EPHEMERIS_TYPE":0,"CLASSIFICATION_TYPE":"U","NORAD_CAT_ID":67780,"ELEMENT_SET_NO":999,"REV_AT_EPOCH":405,"BSTAR":0.00079560342,"MEAN_MOTION_DOT":0.00027023,"MEAN_MOTION_DDOT":0},{"OBJECT_NAME":"KUIPER-00220","OBJECT_ID":"2026-030T","EPOCH":"2026-03-02T22:33:49.009248","MEAN_MOTION":15.34424943,"ECCENTRICITY":0.00080711,"INCLINATION":51.8797,"RA_OF_ASC_NODE":251.8265,"ARG_OF_PERICENTER":37.8554,"MEAN_ANOMALY":322.2998,"EPHEMERIS_TYPE":0,"CLASSIFICATION_TYPE":"U","NORAD_CAT_ID":67781,"ELEMENT_SET_NO":999,"REV_AT_EPOCH":405,"BSTAR":0.00077150278,"MEAN_MOTION_DOT":0.00025845,"MEAN_MOTION_DDOT":0},{"OBJECT_NAME":"KUIPER-00222","OBJECT_ID":"2026-030U","EPOCH":"2026-03-02T21:26:59.580960","MEAN_MOTION":15.32371863,"ECCENTRICITY":0.00177766,"INCLINATION":51.8797,"RA_OF_ASC_NODE":252.2589,"ARG_OF_PERICENTER":41.3718,"MEAN_ANOMALY":318.8609,"EPHEMERIS_TYPE":0,"CLASSIFICATION_TYPE":"U","NORAD_CAT_ID":67782,"ELEMENT_SET_NO":999,"REV_AT_EPOCH":404,"BSTAR":0.0011402639,"MEAN_MOTION_DOT":0.00036142,"MEAN_MOTION_DDOT":0},{"OBJECT_NAME":"KUIPER-00223","OBJECT_ID":"2026-030V","EPOCH":"2026-03-02T22:42:23.967072","MEAN_MOTION":15.33922838,"ECCENTRICITY":0.00121678,"INCLINATION":51.8812,"RA_OF_ASC_NODE":251.869,"ARG_OF_PERICENTER":41.2795,"MEAN_ANOMALY":318.9108,"EPHEMERIS_TYPE":0,"CLASSIFICATION_TYPE":"U","NORAD_CAT_ID":67783,"ELEMENT_SET_NO":999,"REV_AT_EPOCH":405,"BSTAR":0.0007456514,"MEAN_MOTION_DOT":0.00024594,"MEAN_MOTION_DDOT":0}]
